CCSDS_OEM_VERS = 2.0  
CREATION_DATE  = 2026-05-08T15:36:39
ORIGINATOR     = ESOC/OPS-GFA                            
 
 



META_START
OBJECT_NAME          = LISA                                    
OBJECT_ID            = -1000                                   
CENTER_NAME          = SUN                     
REF_FRAME            = EME2000 
TIME_SYSTEM          = TCB
START_TIME           = 2036-12-23T00:00:30.346418            
STOP_TIME            = 2047-09-06T04:07:59.703770            
INTERPOLATION        = HERMITE                                 
INTERPOLATION_DEGREE = 7                                       
META_STOP

2037-12-26T23:27:18.779771     3.61239691365810335e+07    1.33086662224101543e+08    5.72808224859279767e+07   -2.89128258961331923e+01    6.64924169469044735e+00    3.14080249024120617e+00   -1.44011880197551376e-06   -5.30456828676943832e-06   -2.28309323077720017e-06
2037-12-27T19:46:28.635296     3.40052226485005766e+07    1.33558845191962391e+08    5.75044558235090673e+07   -2.90150732221513898e+01    6.26055716808469231e+00    2.97348241454443496e+00   -1.35539486653419402e-06   -5.32231676854781994e-06   -2.29154524982239374e-06
2037-12-28T16:05:38.490821     3.18792236917914003e+07    1.34002549509161189e+08    5.77158275617804676e+07   -2.91111135278472553e+01    5.87061625334911685e+00    2.80556212976987895e+00   -1.27041491449134183e-06   -5.33891890160319894e-06   -2.29950339963646512e-06
2037-12-29T12:24:48.346346     2.97464269835487790e+07    1.34417686277161419e+08    5.79148950905749872e+07   -2.92009287638501860e+01    5.47950290422281494e+00    2.63707781122300444e+00   -1.18519749190138557e-06   -5.35437203134193938e-06   -2.30696636138718760e-06
2037-12-30T08:43:58.201872     2.76072885104947761e+07    1.34804172744122803e+08    5.81016184487856179e+07   -2.92845022380006696e+01    5.08730126047730646e+00    2.46806572716068917e+00   -1.09976115878606136e-06   -5.36867372196332190e-06   -2.31393291077042447e-06
2037-12-31T05:03:08.057397     2.54622654246894270e+07    1.35161932370968461e+08    5.82759603539235145e+07   -2.93618186160028429e+01    4.69409563287065623e+00    2.29856223228779699e+00   -1.01412447885516067e-06   -5.38182172934917517e-06   -2.32040190637836261e-06
2038-01-01T01:22:17.912922     2.33118159364172257e+07    1.35490894928172439e+08    5.84378862450025603e+07   -2.94328639212823084e+01    4.29997049028577916e+00    2.12860376219141978e+00   -9.28306008025644085e-07   -5.39381396838497201e-06   -2.32637227566256504e-06
2038-01-01T21:36:05.352222     2.11659097187810354e+07    1.35789736987789929e+08    5.85867327162921354e+07   -2.94973538992753248e+01    3.90675296405121042e+00    1.95897863863797861e+00   -8.42703766881322216e-07   -5.40460402930286002e-06   -2.33182031367304831e-06
2038-01-02T17:49:52.791522     1.90155340014985725e+07    1.36059914438390881e+08    5.87232118214741871e+07   -2.95556043549876257e+01    3.51279143925718884e+00    1.78897479937682369e+00   -7.56958204055454843e-07   -5.41424560484014108e-06   -2.33677252594270996e-06
2038-01-03T14:03:40.230823     1.68611435428046472e+07    1.36301376172186345e+08    5.88472973078186810e+07   -2.96076055195790282e+01    3.11816959533848337e+00    1.61862837677636429e+00   -6.71087689503887768e-07   -5.42273767427127485e-06   -2.34122830256739274e-06
2038-01-04T10:17:27.670123     1.47031937851493321e+07    1.36514077118961215e+08    5.89589655297799036e+07   -2.96533489620371036e+01    2.72297117957031487e+00    1.44797554480863733e+00   -5.85110592137988767e-07   -5.43007940025020647e-06   -2.34518711308615231e-06
2038-01-05T06:31:15.109423     1.25421407400970086e+07    1.36697978301966488e+08    5.90581954742420986e+07   -2.96928275889242634e+01    2.32727999271057140e+00    1.27705251282793486e+00   -4.99045274968770873e-07   -5.43627015534255388e-06   -2.34864851801217089e-06
2038-01-06T02:45:02.548723     1.03784408816177379e+07    1.36853046868106961e+08    5.91449687745619044e+07   -2.97260356437765374e+01    1.93117987291098725e+00    1.10589551859684532e+00   -4.12910090425876326e-07   -5.44130954313213576e-06   -2.35161217801285075e-06
2038-01-06T22:58:49.988022     8.21255104593374580e+06    1.36979256097780466e+08    5.92192697157426476e+07   -2.97529687061677990e+01    1.53475467828855905e+00    9.34540820729239607e-01   -3.26723375850644131e-07   -5.44519741390872385e-06   -2.35407786074227550e-06
2038-01-07T19:12:37.427323     6.04492833610349521e+06    1.37076585399719805e+08    5.92810852330734283e+07   -2.97736236904520482e+01    1.13808826855212875e+00    7.63024690721308074e-01   -2.40503449162011443e-07   -5.44793387492513682e-06   -2.35604544532086113e-06
2038-01-08T15:26:24.866623     3.87603002952611446e+06    1.37145020296188205e+08    5.93304049065657109e+07   -2.97879988441964159e+01    7.41264486079038054e-01    5.91383404741745000e-01   -1.54268604697472428e-07   -5.44951929524505710e-06   -2.35751492447124489e-06
2038-01-09T11:40:12.305923     1.70631348654850572e+06    1.37184552403879344e+08    5.93672209535202608e+07   -2.97960937463175419e+01    3.44367136836834398e-01    4.19653235352189569e-01   -6.80371092255765874e-08   -5.44995430514669516e-06   -2.35848640429573623e-06
2038-01-10T07:53:59.745223    -4.63763941641993821e+05    1.37195179415872991e+08    5.93915282215572447e+07   -2.97979093049339738e+01   -5.25200284551328167e-02    2.47870443329021084e-01    1.81728018659851468e-08   -5.44923979013090892e-06   -2.35896010171582266e-06
2038-01-11T04:07:47.184524    -2.63374500765696913e+06    1.37176905089997500e+08    5.94033241844422743e+07   -2.97934477549471914e+01   -4.49313332529222009e-01    7.60712697576142460e-02    1.04342928207619488e-07   -5.44737687949291496e-06   -2.35893633955669184e-06
2038-01-12T00:21:34.623824    -4.80317266689576209e+06    1.37129739248949915e+08    5.94026089430412203e+07   -2.97827126553639872e+01   -8.45929188743221872e-01   -9.57080714298528257e-02    1.90455107918610631e-07   -5.44436692944111582e-06   -2.35841553926895952e-06
2038-01-12T20:35:22.063123    -6.97159018270096928e+06    1.37053697797524661e+08    5.93893852337366194e+07   -2.97657088863727530e+01   -1.24228411682939122e+00   -2.67431400301908262e-01    2.76491220891467119e-07   -5.44021150087271903e-06   -2.35739821133553267e-06
2038-01-13T16:49:09.502423    -9.13854123949832097e+06    1.36948802762302190e+08    5.93636584466384351e+07   -2.97424426461863867e+01   -1.63829475682378245e+00   -4.39062576989548425e-01    3.62433191913127012e-07   -5.43491233165287880e-06   -2.35588494329717037e-06
2038-01-14T13:02:56.941723    -1.13035700657380149e+07    1.36815082359148383e+08    5.93254366559220403e+07   -2.97129214476644421e+01   -2.03387788078113463e+00   -6.10565506791125312e-01    4.48262993617557292e-07   -5.42847130344194068e-06   -2.35387638541607722e-06
2038-01-15T09:07:59.558695    -1.34506461449410617e+07    1.36653844827464789e+08    5.92751405761452317e+07   -2.96774341878174255e+01   -2.42610540590305135e+00   -7.80670096061924390e-01    5.33345581259509831e-07   -5.42094985744961437e-06   -2.35139336527690483e-06
2038-01-16T05:13:02.175666    -1.55949341380311400e+07    1.36464268870291173e+08    5.92125524098272845e+07   -2.96358004008722737e+01   -2.81774858382250626e+00   -9.50577566805424823e-01    6.18282342874735557e-07   -5.41230782846878685e-06   -2.34842395838141228e-06
2038-01-17T01:18:04.792639    -1.77359900505808182e+07    1.36246399687564135e+08    5.91376876899280921e+07   -2.95880312614656802e+01   -3.20872649388160358e+00   -1.12025278971122866e+00    7.03055829938263115e-07   -5.40254801998917795e-06   -2.34496921940398880e-06
2038-01-17T21:23:07.409611    -1.98733707089279294e+07    1.36000288273348480e+08    5.90505644649457559e+07   -2.95341392041970856e+01   -3.59895842401829658e+00   -1.28966071429287177e+00    7.87648640282356665e-07   -5.39167340295397536e-06   -2.34103027596077882e-06
2038-01-18T17:28:10.026582    -2.20066338787408881e+07    1.35725991443298966e+08    5.89512033118821755e+07   -2.94741379199050009e+01   -3.98836388374077755e+00   -1.45876637454028746e+00    8.72043428162567182e-07   -5.37968713882700407e-06   -2.33660833868278623e-06
2038-01-19T13:33:12.643554    -2.41353383701792881e+07    1.35423571840561450e+08    5.88396273397540078e+07   -2.94080423512640046e+01   -4.37686261858956094e+00   -1.62753489522217532e+00    9.56222912981728283e-07   -5.36659259778126988e-06   -2.33170470916533287e-06
2038-01-20T09:38:15.260525    -2.62590441325221322e+07    1.35093097924589396e+08    5.87158621856126934e+07   -2.93358686877993939e+01   -4.76437462573840165e+00   -1.79593149868642676e+00    1.04016988667429332e-06   -5.35239337201394035e-06   -2.32632078579612413e-06
2038-01-21T05:43:17.877497    -2.83773123411153443e+07    1.34734643947351962e+08    5.85799360050367862e+07   -2.92576343604164286e+01   -5.15082017038145601e+00   -1.96392151200511789e+00    1.12386721974925733e-06   -5.33709328417790476e-06   -2.32045806745754951e-06
2038-01-22T01:48:20.494469    -3.04897054794903398e+07    1.34348289921408474e+08    5.84318794590596855e+07   -2.91733580355410176e+01   -5.53611980255409986e+00   -2.13147037431059294e+00    1.20729786599489721e-06   -5.32069639094858074e-06   -2.31411815511144572e-06
2038-01-22T21:53:23.111440    -3.25957874195052907e+07    1.33934121584325284e+08    5.82717256994960159e+07   -2.90830596089688278e+01   -5.92019437403478754e+00   -2.29854364416914558e+00    1.29044486584004363e-06   -5.30320698169407502e-06   -2.30730275125237203e-06
2038-01-23T17:58:25.728412    -3.46951235023610294e+07    1.33492230363910615e+08    5.80995103546298966e+07   -2.89867601995196082e+01   -6.30296505497535353e+00   -2.46510700683882922e+00    1.37329134837993833e-06   -5.28462957229457296e-06   -2.30001365724942949e-06
